{
  "type": "FeatureCollection",
  "features": [
    {
      "type": "Feature",
      "properties": {
        "norad_id": 67071,
        "name": "KZ-11 R/B",
        "group": "last-30-days",
        "lat": -33.67469098365384,
        "lon": 25.418654643970868,
        "alt_km": 275.8448573118203,
        "timestamp": "2025-12-17T19:34:06.803743+00:00",
        "meta_object_name": "KZ-11 R/B",
        "meta_object_id": "2025-296C",
        "meta_epoch": "2025-12-17T06:47:35.869056",
        "meta_mean_motion": 14.72691336,
        "meta_eccentricity": 0.07375778,
        "meta_inclination": 41.3383,
        "meta_ra_of_asc_node": 77.5762,
        "meta_arg_of_pericenter": 346.2221,
        "meta_mean_anomaly": 11.9396,
        "meta_ephemeris_type": 0,
        "meta_classification_type": "U",
        "meta_norad_cat_id": 67071,
        "meta_element_set_no": 999,
        "meta_rev_at_epoch": 62,
        "meta_bstar": 0.00048545423,
        "meta_mean_motion_dot": 0.04857343,
        "meta_mean_motion_ddot": 5.667684e-06,
        "tle_line1": "1 67071U 25296C   25351.28305404  .04857343  56677-5  48545-3 0  9996",
        "tle_line2": "2 67071  41.3383  77.5762 0737577 346.2221  11.9396 14.72691336   624"
      },
      "geometry": {
        "type": "Point",
        "coordinates": [
          25.418654643970868,
          -33.67469098365384
        ]
      }
    },
    {
      "type": "Feature",
      "properties": {
        "norad_id": 67072,
        "name": "ELECTRON R/B",
        "group": "last-30-days",
        "lat": -14.971493746035204,
        "lon": -42.40321991088251,
        "alt_km": 188.43969087839832,
        "timestamp": "2025-12-17T19:34:06.803754+00:00",
        "meta_object_name": "ELECTRON R/B",
        "meta_object_id": "2025-297A",
        "meta_epoch": "2025-12-17T08:06:17.532288",
        "meta_mean_motion": 15.80276823,
        "meta_eccentricity": 0.0228335,
        "meta_inclination": 97.4783,
        "meta_ra_of_asc_node": 139.0903,
        "meta_arg_of_pericenter": 215.7414,
        "meta_mean_anomaly": 142.8389,
        "meta_ephemeris_type": 0,
        "meta_classification_type": "U",
        "meta_norad_cat_id": 67072,
        "meta_element_set_no": 999,
        "meta_rev_at_epoch": 51,
        "meta_bstar": 0.0013827,
        "meta_mean_motion_dot": 0.02024999,
        "meta_mean_motion_ddot": 2.230779e-06,
        "tle_line1": "1 67072U 25297A   25351.33770292  .02024999  22308-5  13827-2 0  9994",
        "tle_line2": "2 67072  97.4783 139.0903 0228335 215.7414 142.8389 15.80276823   517"
      },
      "geometry": {
        "type": "Point",
        "coordinates": [
          -42.40321991088251,
          -14.971493746035204
        ]
      }
    },
    {
      "type": "Feature",
      "properties": {
        "norad_id": 67073,
        "name": "RAISE-4",
        "group": "last-30-days",
        "lat": 21.935377156663048,
        "lon": 136.19264492333983,
        "alt_km": 543.2544758576505,
        "timestamp": "2025-12-17T19:34:06.803766+00:00",
        "meta_object_name": "RAISE-4",
        "meta_object_id": "2025-297B",
        "meta_epoch": "2025-12-17T08:19:01.036992",
        "meta_mean_motion": 15.07163549,
        "meta_eccentricity": 0.00115781,
        "meta_inclination": 97.4851,
        "meta_ra_of_asc_node": 138.7718,
        "meta_arg_of_pericenter": 304.1273,
        "meta_mean_anomaly": 55.8856,
        "meta_ephemeris_type": 0,
        "meta_classification_type": "U",
        "meta_norad_cat_id": 67073,
        "meta_element_set_no": 999,
        "meta_rev_at_epoch": 48,
        "meta_bstar": 0.00025749565,
        "meta_mean_motion_dot": 3.817e-05,
        "meta_mean_motion_ddot": 0,
        "tle_line1": "1 67073U 25297B   25351.34653978  .00003817  00000+0  25750-3 0  9999",
        "tle_line2": "2 67073  97.4851 138.7718 0011578 304.1273  55.8856 15.07163549   486"
      },
      "geometry": {
        "type": "Point",
        "coordinates": [
          136.19264492333983,
          21.935377156663048
        ]
      }
    },
    {
      "type": "Feature",
      "properties": {
        "norad_id": 67074,
        "name": "ELECTRON KICK STAGE R/B",
        "group": "last-30-days",
        "lat": -75.18854655881626,
        "lon": 169.3072085814885,
        "alt_km": 290.0167934904239,
        "timestamp": "2025-12-17T19:34:06.803779+00:00",
        "meta_object_name": "ELECTRON KICK STAGE R/B",
        "meta_object_id": "2025-297C",
        "meta_epoch": "2025-12-17T07:32:31.803072",
        "meta_mean_motion": 15.55127618,
        "meta_eccentricity": 0.02048941,
        "meta_inclination": 97.4815,
        "meta_ra_of_asc_node": 138.9811,
        "meta_arg_of_pericenter": 252.8586,
        "meta_mean_anomaly": 105.0142,
        "meta_ephemeris_type": 0,
        "meta_classification_type": "U",
        "meta_norad_cat_id": 67074,
        "meta_element_set_no": 999,
        "meta_rev_at_epoch": 49,
        "meta_bstar": 0.0013458249,
        "meta_mean_motion_dot": 0.00238889,
        "meta_mean_motion_ddot": 1.6889925e-05,
        "tle_line1": "1 67074U 25297C   25351.31425698  .00238889  16890-4  13458-2 0  9992",
        "tle_line2": "2 67074  97.4815 138.9811 0204894 252.8586 105.0142 15.55127618   491"
      },
      "geometry": {
        "type": "Point",
        "coordinates": [
          169.3072085814885,
          -75.18854655881626
        ]
      }
    },
    {
      "type": "Feature",
      "properties": {
        "norad_id": 67131,
        "name": "ZIYUAN 3-04 (ZY 3-04)",
        "group": "last-30-days",
        "lat": -32.748489056259515,
        "lon": 70.76650988564445,
        "alt_km": 494.7371875819081,
        "timestamp": "2025-12-17T19:34:06.803807+00:00",
        "meta_object_name": "ZIYUAN 3-04 (ZY 3-04)",
        "meta_object_id": "2025-300A",
        "meta_epoch": "2025-12-16T05:54:33.890112",
        "meta_mean_motion": 15.24627585,
        "meta_eccentricity": 0.0011082,
        "meta_inclination": 97.5012,
        "meta_ra_of_asc_node": 64.3338,
        "meta_arg_of_pericenter": 268.6179,
        "meta_mean_anomaly": 91.3789,
        "meta_ephemeris_type": 0,
        "meta_classification_type": "U",
        "meta_norad_cat_id": 67131,
        "meta_element_set_no": 999,
        "meta_rev_at_epoch": 2,
        "meta_bstar": 8.3268042e-05,
        "meta_mean_motion_dot": 1.984e-05,
        "meta_mean_motion_ddot": 0,
        "tle_line1": "1 67131U 25300A   25350.24622558  .00001984  00000+0  83268-4 0  9999",
        "tle_line2": "2 67131  97.5012  64.3338 0011082 268.6179  91.3789 15.24627585    26"
      },
      "geometry": {
        "type": "Point",
        "coordinates": [
          70.76650988564445,
          -32.748489056259515
        ]
      }
    },
    {
      "type": "Feature",
      "properties": {
        "norad_id": 67132,
        "name": "CZ-4B R/B",
        "group": "last-30-days",
        "lat": -19.388063962812126,
        "lon": -116.63560180706922,
        "alt_km": 499.52880073025517,
        "timestamp": "2025-12-17T19:34:06.803830+00:00",
        "meta_object_name": "CZ-4B R/B",
        "meta_object_id": "2025-300B",
        "meta_epoch": "2025-12-17T15:38:50.646912",
        "meta_mean_motion": 15.63708593,
        "meta_eccentricity": 0.017509,
        "meta_inclination": 97.5588,
        "meta_ra_of_asc_node": 65.868,
        "meta_arg_of_pericenter": 12.9628,
        "meta_mean_anomaly": 347.6044,
        "meta_ephemeris_type": 0,
        "meta_classification_type": "U",
        "meta_norad_cat_id": 67132,
        "meta_element_set_no": 999,
        "meta_rev_at_epoch": 24,
        "meta_bstar": 0.00019398,
        "meta_mean_motion_dot": 0.00040269,
        "meta_mean_motion_ddot": 2.64e-06,
        "tle_line1": "1 67132U 25300B   25351.65197508  .00040269  26400-5  19398-3 0  9997",
        "tle_line2": "2 67132  97.5588  65.8680 0175090  12.9628 347.6044 15.63708593   247"
      },
      "geometry": {
        "type": "Point",
        "coordinates": [
          -116.63560180706922,
          -19.388063962812126
        ]
      }
    },
    {
      "type": "Feature",
      "properties": {
        "norad_id": 67160,
        "name": "GALILEO A",
        "group": "last-30-days",
        "lat": 20.818643375073197,
        "lon": -88.6459516014578,
        "alt_km": 22941.008897215434,
        "timestamp": "2025-12-17T19:34:06.803842+00:00",
        "meta_object_name": "GALILEO A",
        "meta_object_id": "2025-302A",
        "meta_epoch": "2025-12-17T13:37:30.970848",
        "meta_mean_motion": 1.72894122,
        "meta_eccentricity": 0.0007404,
        "meta_inclination": 54.2333,
        "meta_ra_of_asc_node": 107.264,
        "meta_arg_of_pericenter": 239.3858,
        "meta_mean_anomaly": 120.5001,
        "meta_ephemeris_type": 0,
        "meta_classification_type": "U",
        "meta_norad_cat_id": 67160,
        "meta_element_set_no": 999,
        "meta_rev_at_epoch": 1,
        "meta_bstar": 0,
        "meta_mean_motion_dot": -8e-08,
        "meta_mean_motion_ddot": 0,
        "tle_line1": "1 67160U 25302A   25351.56771957 -.00000008  00000+0  00000+0 0  9992",
        "tle_line2": "2 67160  54.2333 107.2640 0007404 239.3858 120.5001  1.72894122    11"
      },
      "geometry": {
        "type": "Point",
        "coordinates": [
          -88.6459516014578,
          20.818643375073197
        ]
      }
    }
  ]
}